
# Worst residual: 158.97 km
# MJD 60420.000000 (2024 Apr 20  0:00)
A10ZokQ = A10Zf0T = A10ZpfY
1 79948U 23999ZYX 24111.49919926  .00000000  00000-0  00000-0 0 22431
2 79948 024.6290 319.9686 4683494 042.6092 188.2976 01.05516446    08

# Worst residual: 92.84 km
# MJD 60421.000000 (2024 Apr 21  0:00)
A10ZokQ = A10Zf0T = A10ZpfY
1 79948U 23999ZYX 24112.49919926  .00000000  00000-0  00000-0 0 22432
2 79948 024.5765 319.8288 4631242 043.8436 207.6950 01.05449068    03
